{
  "links" : {
    "next" : "https://api.nasa.gov/neo/rest/v1/feed?start_date=2003-09-16&end_date=2003-09-16&detailed=true&api_key=t0TVs3DtDT2H8Oy2Zy8m2eVrNsAVKAexjcZXUckd",
    "prev" : "https://api.nasa.gov/neo/rest/v1/feed?start_date=2003-09-14&end_date=2003-09-14&detailed=true&api_key=t0TVs3DtDT2H8Oy2Zy8m2eVrNsAVKAexjcZXUckd",
    "self" : "https://api.nasa.gov/neo/rest/v1/feed?start_date=2003-09-15&end_date=2003-09-15&detailed=true&api_key=t0TVs3DtDT2H8Oy2Zy8m2eVrNsAVKAexjcZXUckd"
  },
  "element_count" : 6,
  "near_earth_objects" : {
    "2003-09-15" : [ {
      "links" : {
        "self" : "https://api.nasa.gov/neo/rest/v1/neo/2357439?api_key=t0TVs3DtDT2H8Oy2Zy8m2eVrNsAVKAexjcZXUckd"
      },
      "neo_reference_id" : "2357439",
      "name" : "357439 (2004 BL86)",
      "nasa_jpl_url" : "http://ssd.jpl.nasa.gov/sbdb.cgi?sstr=2357439",
      "absolute_magnitude_h" : 19.3,
      "estimated_diameter" : {
        "kilometers" : {
          "estimated_diameter_min" : 0.3669061375,
          "estimated_diameter_max" : 0.8204270649
        },
        "meters" : {
          "estimated_diameter_min" : 366.9061375314,
          "estimated_diameter_max" : 820.4270648822
        },
        "miles" : {
          "estimated_diameter_min" : 0.2279848336,
          "estimated_diameter_max" : 0.5097895857
        },
        "feet" : {
          "estimated_diameter_min" : 1203.7603322587,
          "estimated_diameter_max" : 2691.6899315481
        }
      },
      "is_potentially_hazardous_asteroid" : true,
      "close_approach_data" : [ {
        "close_approach_date" : "2003-09-15",
        "epoch_date_close_approach" : 1063609200000,
        "relative_velocity" : {
          "kilometers_per_second" : "12.1681480221",
          "kilometers_per_hour" : "43805.3328795902",
          "miles_per_hour" : "27218.9303106543"
        },
        "miss_distance" : {
          "astronomical" : "0.3912827554",
          "lunar" : "152.2089996338",
          "kilometers" : "58535068",
          "miles" : "36372004"
        },
        "orbiting_body" : "Earth"
      } ],
      "orbital_data" : {
        "orbit_id" : "94",
        "orbit_determination_date" : "2017-05-25 06:21:18",
        "orbit_uncertainty" : "0",
        "minimum_orbit_intersection" : ".00924442",
        "jupiter_tisserand_invariant" : "4.364",
        "epoch_osculation" : "2458000.5",
        "eccentricity" : ".4025970899105609",
        "semi_major_axis" : "1.502224043660855",
        "inclination" : "23.77503147536866",
        "ascending_node_longitude" : "126.6941423516237",
        "orbital_period" : "672.5126997616453",
        "perihelion_distance" : ".8974330152893197",
        "perihelion_argument" : "311.4483472840123",
        "aphelion_distance" : "2.107015072032391",
        "perihelion_time" : "2457684.281479104214",
        "mean_anomaly" : "169.2736323980652",
        "mean_motion" : ".5353058761977174",
        "equinox" : "J2000"
      }
    }, {
      "links" : {
        "self" : "https://api.nasa.gov/neo/rest/v1/neo/3160726?api_key=t0TVs3DtDT2H8Oy2Zy8m2eVrNsAVKAexjcZXUckd"
      },
      "neo_reference_id" : "3160726",
      "name" : "(2003 SY4)",
      "nasa_jpl_url" : "http://ssd.jpl.nasa.gov/sbdb.cgi?sstr=3160726",
      "absolute_magnitude_h" : 26.5,
      "estimated_diameter" : {
        "kilometers" : {
          "estimated_diameter_min" : 0.0133215567,
          "estimated_diameter_max" : 0.0297879063
        },
        "meters" : {
          "estimated_diameter_min" : 13.3215566698,
          "estimated_diameter_max" : 29.7879062798
        },
        "miles" : {
          "estimated_diameter_min" : 0.008277629,
          "estimated_diameter_max" : 0.0185093411
        },
        "feet" : {
          "estimated_diameter_min" : 43.7058959846,
          "estimated_diameter_max" : 97.7293544391
        }
      },
      "is_potentially_hazardous_asteroid" : false,
      "close_approach_data" : [ {
        "close_approach_date" : "2003-09-15",
        "epoch_date_close_approach" : 1063609200000,
        "relative_velocity" : {
          "kilometers_per_second" : "10.9071943204",
          "kilometers_per_hour" : "39265.8995534796",
          "miles_per_hour" : "24398.3029753274"
        },
        "miss_distance" : {
          "astronomical" : "0.0102175977",
          "lunar" : "3.9746456146",
          "kilometers" : "1528530.875",
          "miles" : "949785.0625"
        },
        "orbiting_body" : "Earth"
      } ],
      "orbital_data" : {
        "orbit_id" : "12",
        "orbit_determination_date" : "2017-04-06 09:13:51",
        "orbit_uncertainty" : "7",
        "minimum_orbit_intersection" : ".00456067",
        "jupiter_tisserand_invariant" : "3.192",
        "epoch_osculation" : "2458000.5",
        "eccentricity" : ".6117858797577146",
        "semi_major_axis" : "2.473878138842187",
        "inclination" : "3.922617389675752",
        "ascending_node_longitude" : "353.7617411600928",
        "orbital_period" : "1421.234957586477",
        "perihelion_distance" : ".9603944252572421",
        "perihelion_argument" : "327.639682478907",
        "aphelion_distance" : "3.987361852427132",
        "perihelion_time" : "2458561.223240504675",
        "mean_anomaly" : "217.9683355632627",
        "mean_motion" : ".2533008339531329",
        "equinox" : "J2000"
      }
    }, {
      "links" : {
        "self" : "https://api.nasa.gov/neo/rest/v1/neo/3347493?api_key=t0TVs3DtDT2H8Oy2Zy8m2eVrNsAVKAexjcZXUckd"
      },
      "neo_reference_id" : "3347493",
      "name" : "(2006 SU217)",
      "nasa_jpl_url" : "http://ssd.jpl.nasa.gov/sbdb.cgi?sstr=3347493",
      "absolute_magnitude_h" : 25.3,
      "estimated_diameter" : {
        "kilometers" : {
          "estimated_diameter_min" : 0.0231502122,
          "estimated_diameter_max" : 0.0517654482
        },
        "meters" : {
          "estimated_diameter_min" : 23.150212221,
          "estimated_diameter_max" : 51.7654482198
        },
        "miles" : {
          "estimated_diameter_min" : 0.0143848705,
          "estimated_diameter_max" : 0.0321655483
        },
        "feet" : {
          "estimated_diameter_min" : 75.9521422633,
          "estimated_diameter_max" : 169.8341531374
        }
      },
      "is_potentially_hazardous_asteroid" : false,
      "close_approach_data" : [ {
        "close_approach_date" : "2003-09-15",
        "epoch_date_close_approach" : 1063609200000,
        "relative_velocity" : {
          "kilometers_per_second" : "15.5588978643",
          "kilometers_per_hour" : "56012.032311467",
          "miles_per_hour" : "34803.6986326446"
        },
        "miss_distance" : {
          "astronomical" : "0.3358295102",
          "lunar" : "130.6376800537",
          "kilometers" : "50239380",
          "miles" : "31217302"
        },
        "orbiting_body" : "Earth"
      } ],
      "orbital_data" : {
        "orbit_id" : "10",
        "orbit_determination_date" : "2017-04-06 09:07:59",
        "orbit_uncertainty" : "5",
        "minimum_orbit_intersection" : ".0253681",
        "jupiter_tisserand_invariant" : "6.137",
        "epoch_osculation" : "2458000.5",
        "eccentricity" : ".173857865733201",
        "semi_major_axis" : ".9852787809445105",
        "inclination" : "2.636233376223132",
        "ascending_node_longitude" : "193.7175231129747",
        "orbital_period" : "357.2211149896775",
        "perihelion_distance" : ".8139803149372877",
        "perihelion_argument" : "38.43986871183503",
        "aphelion_distance" : "1.156577246951733",
        "perihelion_time" : "2458178.545209870274",
        "mean_anomaly" : "180.5697455617913",
        "mean_motion" : "1.007779173441085",
        "equinox" : "J2000"
      }
    } ]
  }
}